{
  "type": "FeatureCollection",
  "features": [
    {
      "type": "Feature",
      "properties": {
        "norad_id": 64902,
        "name": "CO3D 2",
        "group": "resource",
        "lat": -77.91173084802844,
        "lon": 94.52915446939669,
        "alt_km": 513.1532399597409,
        "timestamp": "2025-12-06T14:35:36.785530+00:00",
        "meta_object_name": "CO3D 2",
        "meta_object_id": "2025-156D",
        "meta_epoch": "2025-12-05T21:34:11.594784",
        "meta_mean_motion": 15.20206227,
        "meta_eccentricity": 8.478e-05,
        "meta_inclination": 97.4344,
        "meta_ra_of_asc_node": 56.2618,
        "meta_arg_of_pericenter": 104.2207,
        "meta_mean_anomaly": 255.9122,
        "meta_ephemeris_type": 0,
        "meta_classification_type": "U",
        "meta_norad_cat_id": 64902,
        "meta_element_set_no": 999,
        "meta_rev_at_epoch": 2016,
        "meta_bstar": 2.7929626e-05,
        "meta_mean_motion_dot": 5.37e-06,
        "meta_mean_motion_ddot": 0,
        "tle_line1": "1 64902U 25156D   25339.89874531  .00000537  00000+0  27930-4 0  9996",
        "tle_line2": "2 64902  97.4344  56.2618 0000847 104.2207 255.9122 15.20206227 20169"
      },
      "geometry": {
        "type": "Point",
        "coordinates": [
          94.52915446939669,
          -77.91173084802844
        ]
      }
    },
    {
      "type": "Feature",
      "properties": {
        "norad_id": 64903,
        "name": "CO3D 1",
        "group": "resource",
        "lat": -78.55221745827752,
        "lon": 97.1146520163079,
        "alt_km": 513.2615492628702,
        "timestamp": "2025-12-06T14:35:36.785541+00:00",
        "meta_object_name": "CO3D 1",
        "meta_object_id": "2025-156E",
        "meta_epoch": "2025-12-06T05:28:20.228160",
        "meta_mean_motion": 15.20209887,
        "meta_eccentricity": 0.0001033,
        "meta_inclination": 97.4344,
        "meta_ra_of_asc_node": 56.5876,
        "meta_arg_of_pericenter": 105.2581,
        "meta_mean_anomaly": 254.8768,
        "meta_ephemeris_type": 0,
        "meta_classification_type": "U",
        "meta_norad_cat_id": 64903,
        "meta_element_set_no": 999,
        "meta_rev_at_epoch": 2021,
        "meta_bstar": 0.00023543491,
        "meta_mean_motion_dot": 5.034e-05,
        "meta_mean_motion_ddot": 0,
        "tle_line1": "1 64903U 25156E   25340.22801190  .00005034  00000+0  23543-3 0  9999",
        "tle_line2": "2 64903  97.4344  56.5876 0001033 105.2581 254.8768 15.20209887 20218"
      },
      "geometry": {
        "type": "Point",
        "coordinates": [
          97.1146520163079,
          -78.55221745827752
        ]
      }
    },
    {
      "type": "Feature",
      "properties": {
        "norad_id": 66514,
        "name": "SENTINEL-6B",
        "group": "resource",
        "lat": -46.32417406493466,
        "lon": 22.959781569232494,
        "alt_km": 1316.5239636626757,
        "timestamp": "2025-12-06T14:35:36.785551+00:00",
        "meta_object_name": "SENTINEL-6B",
        "meta_object_id": "2025-264A",
        "meta_epoch": "2025-12-05T07:31:22.416096",
        "meta_mean_motion": 12.8587776,
        "meta_eccentricity": 0.00115487,
        "meta_inclination": 66.0393,
        "meta_ra_of_asc_node": 177.917,
        "meta_arg_of_pericenter": 268.403,
        "meta_mean_anomaly": 91.5665,
        "meta_ephemeris_type": 0,
        "meta_classification_type": "U",
        "meta_norad_cat_id": 66514,
        "meta_element_set_no": 999,
        "meta_rev_at_epoch": 233,
        "meta_bstar": 0.0002937849,
        "meta_mean_motion_dot": 1.1e-07,
        "meta_mean_motion_ddot": 0,
        "tle_line1": "1 66514U 25264A   25339.31345389  .00000011  00000+0  29378-3 0  9992",
        "tle_line2": "2 66514  66.0393 177.9170 0011548 268.4030  91.5665 12.85877760  2336"
      },
      "geometry": {
        "type": "Point",
        "coordinates": [
          22.959781569232494,
          -46.32417406493466
        ]
      }
    }
  ]
}